{
    "links": {
        "self": "http://www.neowsapp.com/rest/v1/neo/3836901?api_key=iIulBulltgU6a56xZRHN4H3l9WmuAYTsLGpBGhQ2"
    },
    "id": "3836901",
    "neo_reference_id": "3836901",
    "name": "(2018 XN4)",
    "designation": "2018 XN4",
    "nasa_jpl_url": "http://ssd.jpl.nasa.gov/sbdb.cgi?sstr=3836901",
    "absolute_magnitude_h": 26.6,
    "estimated_diameter": {
        "kilometers": {
            "estimated_diameter_min": 0.0127219879,
            "estimated_diameter_max": 0.0284472297
        },
        "meters": {
            "estimated_diameter_min": 12.7219878539,
            "estimated_diameter_max": 28.4472296503
        },
        "miles": {
            "estimated_diameter_min": 0.0079050743,
            "estimated_diameter_max": 0.0176762835
        },
        "feet": {
            "estimated_diameter_min": 41.7388066307,
            "estimated_diameter_max": 93.330808926
        }
    },
    "is_potentially_hazardous_asteroid": false,
    "close_approach_data": [
        {
            "close_approach_date": "2018-12-11",
            "close_approach_date_full": "2018-Dec-11 14:23",
            "epoch_date_close_approach": 1544538180000,
            "relative_velocity": {
                "kilometers_per_second": "7.423737414",
                "kilometers_per_hour": "26725.4546905575",
                "miles_per_hour": "16606.1582214745"
            },
            "miss_distance": {
                "astronomical": "0.0925539225",
                "lunar": "36.0034758525",
                "kilometers": "13845869.666145075",
                "miles": "8603424.464449035"
            },
            "orbiting_body": "Earth"
        }
    ],
    "orbital_data": {
        "orbit_id": "3",
        "orbit_determination_date": "2020-09-11 07:41:47",
        "first_observation_date": "2018-12-10",
        "last_observation_date": "2018-12-15",
        "data_arc_in_days": 5,
        "observations_used": 20,
        "orbit_uncertainty": "8",
        "minimum_orbit_intersection": ".0925463",
        "jupiter_tisserand_invariant": "3.100",
        "epoch_osculation": "2458464.5",
        "eccentricity": ".5939319563104209",
        "semi_major_axis": "2.652555413416712",
        "inclination": "7.623703574141564",
        "ascending_node_longitude": "259.1178359012901",
        "orbital_period": "1577.956856631701",
        "perihelion_distance": "1.077117987504327",
        "perihelion_argument": "181.407358461878",
        "aphelion_distance": "4.227992839329098",
        "perihelion_time": "2458465.173787698566",
        "mean_anomaly": "359.8462799724439",
        "mean_motion": ".2281431196848145",
        "equinox": "J2000",
        "orbit_class": {
            "orbit_class_type": "AMO",
            "orbit_class_description": "Near-Earth asteroid orbits similar to that of 1221 Amor",
            "orbit_class_range": "1.017 AU < q (perihelion) < 1.3 AU"
        }
    },
    "is_sentry_object": false
}